     2.10           G: GLONASS NAV DATA                     RINEX VERSION / TYPE
teqc  2015Jun23                         20220103 01:25:45UTCPGM / RUN BY / DATE
Linux 2.4.21-27.ELsmp|Opteron|gcc -static|Linux x86_64|=+   COMMENT
  2021    12    10   -0.000000000000D+00                    CORR TO SYSTEM TIME
                                                            END OF HEADER
13 21 12 11  0 15  0.0-6.466824561357D-05-0.000000000000D+00 0.000000000000D+00
   -1.058865380859D+04-2.536216735840D+00-0.000000000000D+00 0.000000000000D+00
    1.267434033203D+04 8.051872253418D-01 9.313225746155D-10-2.000000000000D+00
   -1.945361669922D+04 1.907057762146D+00 1.862645149231D-09 0.000000000000D+00
12 21 12 11  0 15  0.0 2.854838967323D-04 2.728484105319D-12 0.000000000000D+00
   -2.306379101562D+04-7.341823577881D-01 0.000000000000D+00 0.000000000000D+00
    9.158047851562D+03 3.558197021484D-01 9.313225746155D-10-1.000000000000D+00
   -5.826049316406D+03 3.453309059143D+00-0.000000000000D+00 0.000000000000D+00
 2 21 12 11  0 15  0.0 5.028843879700D-04 1.818989403546D-12 0.000000000000D+00
    2.598418945312D+03-1.824865341187D+00 9.313225746155D-10 0.000000000000D+00
    1.595507421875D+04-1.991364479065D+00 1.862645149231D-09-4.000000000000D+00
    1.979102197266D+04 1.841920852661D+00-9.313225746155D-10 0.000000000000D+00
 3 21 12 11  0 15  0.0 4.794262349606D-05 9.094947017729D-13 0.000000000000D+00
    1.548870166016D+04-4.418210983276D-01 0.000000000000D+00 0.000000000000D+00
    1.946576513672D+04-6.757240295410D-01 1.862645149231D-09 5.000000000000D+00
    5.821479980469D+03 3.450814247131D+00 0.000000000000D+00 0.000000000000D+00
17 21 12 11  0 15  0.0 4.824725911021D-04 2.728484105319D-12 0.000000000000D+00
    2.189990234375D+03-4.308919906616D-01 0.000000000000D+00 0.000000000000D+00
    1.964076318359D+04 2.171617507935D+00 2.793967723846D-09 4.000000000000D+00
    1.611711328125D+04-2.593882560730D+00-0.000000000000D+00 0.000000000000D+00
23 21 12 11  0 15  0.0-2.288911491632D-05-9.094947017729D-13 0.000000000000D+00
   -1.169470312500D+04 7.297124862671D-01-0.000000000000D+00 0.000000000000D+00
    1.763012255859D+04-1.823742866516D+00 9.313225746155D-10 3.000000000000D+00
   -1.424983203125D+04-2.855485916138D+00 9.313225746155D-10 0.000000000000D+00
24 21 12 11  0 15  0.0 7.065944373608D-05 1.818989403546D-12 0.000000000000D+00
   -7.163934082031D+03 1.824741363525D-01-0.000000000000D+00 0.000000000000D+00
    2.447120214844D+04 2.587413787842D-02 1.862645149231D-09 2.000000000000D+00
   -1.654179687500D+02-3.581328392029D+00 0.000000000000D+00 0.000000000000D+00
13 21 12 11  0 45  0.0-6.466917693615D-05-0.000000000000D+00 1.800000000000D+03
   -1.458536767578D+04-1.876361846924D+00-0.000000000000D+00 0.000000000000D+00
    1.427552050781D+04 9.359064102173D-01 9.313225746155D-10-2.000000000000D+00
   -1.531404687500D+04 2.662691116333D+00 9.313225746155D-10 0.000000000000D+00
 2 21 12 11  0 45  0.0 5.028871819377D-04 9.094947017729D-13 1.800000000000D+03
   -1.198274414062D+03-2.368968963623D+00 9.313225746155D-10 0.000000000000D+00
    1.240346142578D+04-1.911222457886D+00 1.862645149231D-09-4.000000000000D+00
    2.230280371094D+04 9.308252334595D-01-1.862645149231D-09 0.000000000000D+00
12 21 12 11  0 45  0.0 2.854894846678D-04 2.728484105319D-12 1.800000000000D+03
   -2.360546191406D+04 1.247797012329D-01 0.000000000000D+00 0.000000000000D+00
    9.619677246094D+03 1.168432235718D-01 9.313225746155D-10-1.000000000000D+00
    5.351323242188D+02 3.568672180176D+00-9.313225746155D-10 0.000000000000D+00
 3 21 12 11  0 45  0.0 4.794448614120D-05 9.094947017729D-13 1.800000000000D+03
    1.404119921875D+04-1.176564216614D+00 0.000000000000D+00 0.000000000000D+00
    1.783889501953D+04-1.090486526489D+00 1.862645149231D-09 5.000000000000D+00
    1.172910107422D+04 3.070835113525D+00 0.000000000000D+00 0.000000000000D+00
17 21 12 11  0 45  0.0 4.824781790376D-04 2.728484105319D-12 1.800000000000D+03
    1.818649414062D+03-8.932113647461D-03 9.313225746155D-10 0.000000000000D+00
    2.298257080078D+04 1.504032135010D+00 2.793967723846D-09 4.000000000000D+00
    1.088477783203D+04-3.182111740112D+00-0.000000000000D+00 0.000000000000D+00
23 21 12 11  0 45  0.0-2.289097756147D-05-9.094947017729D-13 1.800000000000D+03
   -1.052930566406D+04 5.278644561768D-01-0.000000000000D+00 0.000000000000D+00
    1.368899755859D+04-2.524255752563D+00 9.313225746155D-10 3.000000000000D+00
   -1.877240039062D+04-2.136977195740D+00 9.313225746155D-10 0.000000000000D+00
24 21 12 11  0 45  0.0 7.066130638123D-05 1.818989403546D-12 1.800000000000D+03
   -6.685800292969D+03 3.071985244751D-01 0.000000000000D+00 0.000000000000D+00
    2.372086621094D+04-8.609333038330D-01 1.862645149231D-09 2.000000000000D+00
   -6.521983398438D+03-3.435572624207D+00 9.313225746155D-10 0.000000000000D+00
14 21 12 11  0 45  0.0 7.193349301815D-05 0.000000000000D+00 3.060000000000D+03
    3.894071289062D+03-2.896203994751D+00-9.313225746155D-10 0.000000000000D+00
    1.039818798828D+04 1.225206375122D+00 9.313225746155D-10-7.000000000000D+00
   -2.295409033203D+04 6.271457672119D-02 2.793967723846D-09 0.000000000000D+00
13 21 12 11  1 15  0.0-6.466917693615D-05-0.000000000000D+00 3.600000000000D+03
   -1.727370214844D+04-1.100596427917D+00 0.000000000000D+00 0.000000000000D+00
    1.589482373047D+04 8.201150894165D-01 9.313225746155D-10-2.000000000000D+00
   -9.991469238281D+03 3.212954521179D+00 0.000000000000D+00 0.000000000000D+00
12 21 12 11  1 15  0.0 2.854950726032D-04 2.728484105319D-12 3.600000000000D+03
   -2.267526757812D+04 8.832368850708D-01 9.313225746155D-10 0.000000000000D+00
    9.445648925781D+03-3.424615859985D-01 0.000000000000D+00-1.000000000000D+00
    6.854930664062D+03 3.407694816589D+00-1.862645149231D-09 0.000000000000D+00
14 21 12 11  1 15  0.0 7.193349301815D-05 0.000000000000D+00 3.600000000000D+03
   -1.066661132812D+03-2.573221206665D+00-0.000000000000D+00 0.000000000000D+00
    1.292814794922D+04 1.557464599609D+00 9.313225746155D-10-7.000000000000D+00
   -2.195453808594D+04 1.040649414062D+00 1.862645149231D-09 0.000000000000D+00
 3 21 12 11  1 15  0.0 4.794728010893D-05 9.094947017729D-13 3.600000000000D+03
    1.125058789062D+04-1.915279388428D+00 9.313225746155D-10 0.000000000000D+00
    1.569725439453D+04-1.244703292847D+00 1.862645149231D-09 5.000000000000D+00
    1.673452343750D+04 2.454852104187D+00-0.000000000000D+00 0.000000000000D+00
17 21 12 11  1 15  0.0 4.824837669730D-04 2.728484105319D-12 3.600000000000D+03
    2.037554199219D+03 2.138338088989D-01 9.313225746155D-10 0.000000000000D+00
    2.494834326172D+04 6.591768264771D-01 2.793967723846D-09 4.000000000000D+00
    4.809534179688D+03-3.524278640747D+00 0.000000000000D+00 0.000000000000D+00
23 21 12 11  1 15  0.0-2.289377152920D-05-9.094947017729D-13 3.600000000000D+03
   -9.906978515625D+03 1.394958496094D-01-0.000000000000D+00 0.000000000000D+00
    8.682105957031D+03-2.993762016296D+00 0.000000000000D+00 3.000000000000D+00
   -2.184363037109D+04-1.253363609314D+00 1.862645149231D-09 0.000000000000D+00
24 21 12 11  1 15  0.0 7.066410034895D-05 1.818989403546D-12 3.600000000000D+03
   -6.206479492188D+03 1.860275268555D-01-0.000000000000D+00 0.000000000000D+00
    2.140276806641D+04-1.696415901184D+00 1.862645149231D-09 2.000000000000D+00
   -1.237330322266D+04-3.023559570312D+00 9.313225746155D-10 0.000000000000D+00
18 21 12 11  1 15  0.0 1.000594347715D-04 9.094947017729D-13 3.750000000000D+03
    8.322345214844D+03 1.105861663818D-01 9.313225746155D-10 0.000000000000D+00
    1.494405224609D+04 2.595414161682D+00 1.862645149231D-09-3.000000000000D+00
    1.896375146484D+04-2.091690063477D+00-9.313225746155D-10 0.000000000000D+00
13 21 12 11  1 45  0.0-6.467010825872D-05-0.000000000000D+00 5.400000000000D+03
   -1.854589257812D+04-3.220138549805D-01 0.000000000000D+00 0.000000000000D+00
    1.707385937500D+04 4.490604400635D-01 9.313225746155D-10-2.000000000000D+00
   -3.896664062500D+03 3.515107154846D+00-0.000000000000D+00 0.000000000000D+00
12 21 12 11  1 45  0.0 2.855006605387D-04 2.728484105319D-12 5.400000000000D+03
   -2.054406250000D+04 1.445755004883D+00 9.313225746155D-10 0.000000000000D+00
    8.294244140625D+03-9.550323486328D-01 0.000000000000D+00-1.000000000000D+00
    1.264435937500D+04 2.983283042908D+00-1.862645149231D-09 0.000000000000D+00
14 21 12 11  1 45  0.0 7.193442434072D-05 0.000000000000D+00 5.400000000000D+03
   -5.239073242188D+03-2.033881187439D+00-0.000000000000D+00 0.000000000000D+00
    1.587944384766D+04 1.681501388550D+00 9.313225746155D-10-7.000000000000D+00
   -1.925630810547D+04 1.937871932983D+00 1.862645149231D-09 0.000000000000D+00
 3 21 12 11  1 45  0.0 4.794914275408D-05 9.094947017729D-13 5.400000000000D+03
    7.211498046875D+03-2.545606613159D+00 9.313225746155D-10 0.000000000000D+00
    1.351227294922D+04-1.143206596375D+00 1.862645149231D-09 5.000000000000D+00
    2.045302832031D+04 1.650116920471D+00-9.313225746155D-10 0.000000000000D+00
17 21 12 11  1 45  0.0 4.824893549085D-04 2.728484105319D-12 5.400000000000D+03
    2.440522949219D+03 1.915960311890D-01 9.313225746155D-10 0.000000000000D+00
    2.531507128906D+04-2.528858184814D-01 1.862645149231D-09 4.000000000000D+00
   -1.638396484375D+03-3.593449592590D+00 0.000000000000D+00 0.000000000000D+00
18 21 12 11  1 45  0.0 1.000603660941D-04 9.094947017729D-13 5.400000000000D+03
    8.833489746094D+03 4.260845184326D-01 9.313225746155D-10 0.000000000000D+00
    1.906637939453D+04 1.948047637939D+00 1.862645149231D-09-3.000000000000D+00
    1.451674365234D+04-2.817453384399D+00-0.000000000000D+00 0.000000000000D+00
24 21 12 11  1 45  0.0 7.066689431667D-05 1.818989403546D-12 5.400000000000D+03
   -6.143112792969D+03-1.455011367798D-01-0.000000000000D+00 0.000000000000D+00
    1.771182910156D+04-2.369296073914D+00 9.313225746155D-10 2.000000000000D+00
   -1.726574755859D+04-2.377080917358D+00 9.313225746155D-10 0.000000000000D+00
